{"spkid": "20137120", "covariance": {"elements": [{"name": "e", "sigma": 1.65466465561592e-08, "value": ".5501286005366839", "title": "eccentricity", "units": null, "label": "e"}, {"label": "q", "title": "perihelion distance", "value": ".8544732142394957", "units": "au", "sigma": 3.12374558493319e-08, "name": "q"}, {"value": "2457963.348782689473", "title": "time of perihelion passage", "units": "TDB", "sigma": 7.32998201310233e-06, "name": "tp", "label": "tp"}, {"sigma": 2.05035081745133e-05, "name": "om", "units": "deg", "title": "longitude of the ascending node", "value": "339.6225691790624", "label": "node"}, {"sigma": 2.04136318996162e-05, "name": "w", "units": "deg", "value": "221.8342348409263", "title": "argument of perihelion", "label": "peri"}, {"label": "i", "sigma": 6.85357608542261e-06, "name": "i", "title": "inclination", "value": "8.991142692639542", "units": "deg"}], "data": [["2.73791512254454E-16", "-5.167776362842743E-16", "4.464526288454734E-14", "-3.959608171400305E-14", "8.372428469516059E-14", "-2.060154735745472E-16"], ["-5.167776362842743E-16", "9.75778647938959E-16", "-8.11238668533791E-14", "7.176353992802717E-14", "-1.549556445563719E-13", "2.304502399486882E-16"], ["4.464526288454734E-14", "-8.11238668533791E-14", "5.37286363124037E-11", "5.534361552557911E-12", "1.663433952611064E-11", "1.876623937477229E-13"], ["-3.959608171400305E-14", "7.176353992802717E-14", "5.534361552557911E-12", "4.203938474623336E-10", "-4.08148210155451E-10", "-8.821715646200863E-11"], ["8.372428469516059E-14", "-1.549556445563719E-13", "1.663433952611064E-11", "-4.08148210155451E-10", "4.167163673330273E-10", "8.727300718850201E-11"], ["-2.060154735745472E-16", "2.304502399486882E-16", "1.876623937477229E-13", "-8.821715646200863E-11", "8.727300718850201E-11", "4.697150515867671E-11"]], "labels": ["e", "q", "tp", "node", "peri", "i"], "epoch": "2458244.5"}, "elements": [{"label": "e", "name": "e", "sigma": "1.6422E-8", "title": "eccentricity", "value": ".5490427040525381", "units": null}, {"label": "a", "name": "a", "sigma": "1.4815E-9", "title": "semi-major axis", "value": "1.900284336829957", "units": "au"}, {"units": "au", "value": ".8569470860681533", "title": "perihelion distance", "sigma": "3.0936E-8", "name": "q", "label": "q"}, {"label": "i", "units": "deg", "value": "8.972493692198524", "title": "inclination; angle with respect to x-y ecliptic plane", "name": "i", "sigma": "6.8474E-6"}, {"label": "node", "title": "longitude of the ascending node", "value": "339.4268508236844", "units": "deg", "name": "om", "sigma": "2.0529E-5"}, {"title": "argument of perihelion", "value": "222.0311209607618", "units": "deg", "sigma": "2.0437E-5", "name": "w", "label": "peri"}, {"title": "mean anomaly", "value": "138.5690865686775", "units": "deg", "name": "ma", "sigma": "3.9413E-6", "label": "M"}, {"units": "TDB", "value": "2460832.209799485958", "title": "time of perihelion passage", "sigma": "1.0082E-5", "name": "tp", "label": "tp"}, {"name": "per", "sigma": "1.119E-6", "title": "sidereal orbital period", "value": "956.8113312152321", "units": "d", "label": "period"}, {"label": "n", "sigma": "4.4001E-10", "name": "n", "value": ".3762497247422533", "title": "mean motion", "units": "deg/d"}, {"label": "Q", "name": "ad", "sigma": "2.295E-9", "value": "2.94362158759176", "title": "aphelion distance", "units": "au"}], "epoch": "2461200.5"}